[{"OBJECT_NAME":"TYVAK-0130","OBJECT_ID":"2021-041BF","EPOCH":"2026-03-09T11:37:42.710304","MEAN_MOTION":15.26049141,"ECCENTRICITY":0.0008953,"INCLINATION":52.9967,"RA_OF_ASC_NODE":128.603,"ARG_OF_PERICENTER":215.1647,"MEAN_ANOMALY":144.876,"EPHEMERIS_TYPE":0,"CLASSIFICATION_TYPE":"U","NORAD_CAT_ID":48606,"ELEMENT_SET_NO":999,"REV_AT_EPOCH":26515,"BSTAR":0.0003519806,"MEAN_MOTION_DOT":8.857e-5,"MEAN_MOTION_DDOT":0},{"OBJECT_NAME":"STARLINK-32500","OBJECT_ID":"2024-207Z","EPOCH":"2026-03-09T13:57:43.125696","MEAN_MOTION":15.27589215,"ECCENTRICITY":7.44e-5,"INCLINATION":42.9989,"RA_OF_ASC_NODE":285.9761,"ARG_OF_PERICENTER":28.1004,"MEAN_ANOMALY":331.9887,"EPHEMERIS_TYPE":0,"CLASSIFICATION_TYPE":"U","NORAD_CAT_ID":61935,"ELEMENT_SET_NO":999,"REV_AT_EPOCH":7466,"BSTAR":0.0009045,"MEAN_MOTION_DOT":0.00024718,"MEAN_MOTION_DDOT":0}]
